{
  "type": "FeatureCollection",
  "features": [
    {
      "type": "Feature",
      "properties": {
        "norad_id": 34886,
        "name": "COSMOS 2251 DEB",
        "group": "cosmos-2251-debris",
        "lat": -3.153126088135688,
        "lon": 13.983029810530738,
        "alt_km": 476.36079812120715,
        "timestamp": "2025-12-07T03:52:32.898001+00:00",
        "meta_object_name": "COSMOS 2251 DEB",
        "meta_object_id": "1993-036ACZ",
        "meta_epoch": "2025-12-06T06:46:56.276256",
        "meta_mean_motion": 15.37489404,
        "meta_eccentricity": 0.00307588,
        "meta_inclination": 73.9504,
        "meta_ra_of_asc_node": 194.9757,
        "meta_arg_of_pericenter": 20.2795,
        "meta_mean_anomaly": 339.9625,
        "meta_ephemeris_type": 0,
        "meta_classification_type": "U",
        "meta_norad_cat_id": 34886,
        "meta_element_set_no": 999,
        "meta_rev_at_epoch": 62899,
        "meta_bstar": 0.0028840265,
        "meta_mean_motion_dot": 0.00109268,
        "meta_mean_motion_ddot": 0,
        "tle_line1": "1 34886U 93036ACZ 25340.28259579  .00109268  00000+0  28840-2 0  9990",
        "tle_line2": "2 34886  73.9504 194.9757 0030758  20.2795 339.9625 15.37489404628995"
      },
      "geometry": {
        "type": "Point",
        "coordinates": [
          13.983029810530738,
          -3.153126088135688
        ]
      }
    },
    {
      "type": "Feature",
      "properties": {
        "norad_id": 34907,
        "name": "COSMOS 2251 DEB",
        "group": "cosmos-2251-debris",
        "lat": 41.29022769865593,
        "lon": 75.16858131343929,
        "alt_km": 437.4387201701702,
        "timestamp": "2025-12-07T03:52:32.898012+00:00",
        "meta_object_name": "COSMOS 2251 DEB",
        "meta_object_id": "1993-036ADC",
        "meta_epoch": "2025-12-05T15:47:59.728416",
        "meta_mean_motion": 15.38137337,
        "meta_eccentricity": 0.00187359,
        "meta_inclination": 73.9728,
        "meta_ra_of_asc_node": 63.7989,
        "meta_arg_of_pericenter": 350.4143,
        "meta_mean_anomaly": 9.6703,
        "meta_ephemeris_type": 0,
        "meta_classification_type": "U",
        "meta_norad_cat_id": 34907,
        "meta_element_set_no": 999,
        "meta_rev_at_epoch": 87864,
        "meta_bstar": 0.010839259,
        "meta_mean_motion_dot": 0.00433014,
        "meta_mean_motion_ddot": 0,
        "tle_line1": "1 34907U 93036ADC 25339.65833019  .00433014  00000+0  10839-1 0  9997",
        "tle_line2": "2 34907  73.9728  63.7989 0018735 350.4143   9.6703 15.38137337878646"
      },
      "geometry": {
        "type": "Point",
        "coordinates": [
          75.16858131343929,
          41.29022769865593
        ]
      }
    },
    {
      "type": "Feature",
      "properties": {
        "norad_id": 34908,
        "name": "COSMOS 2251 DEB",
        "group": "cosmos-2251-debris",
        "lat": 20.449461622829485,
        "lon": 40.02601861201781,
        "alt_km": 742.257135118185,
        "timestamp": "2025-12-07T03:52:32.898023+00:00",
        "meta_object_name": "COSMOS 2251 DEB",
        "meta_object_id": "1993-036ADD",
        "meta_epoch": "2025-12-05T22:31:44.429088",
        "meta_mean_motion": 14.37367186,
        "meta_eccentricity": 0.00398635,
        "meta_inclination": 74.0595,
        "meta_ra_of_asc_node": 36.154,
        "meta_arg_of_pericenter": 54.5364,
        "meta_mean_anomaly": 122.3252,
        "meta_ephemeris_type": 0,
        "meta_classification_type": "U",
        "meta_norad_cat_id": 34908,
        "meta_element_set_no": 999,
        "meta_rev_at_epoch": 87181,
        "meta_bstar": 0.0009291046,
        "meta_mean_motion_dot": 2.775e-05,
        "meta_mean_motion_ddot": 0,
        "tle_line1": "1 34908U 93036ADD 25339.93870867  .00002775  00000+0  92910-3 0  9999",
        "tle_line2": "2 34908  74.0595  36.1540 0039863  54.5364 122.3252 14.37367186871819"
      },
      "geometry": {
        "type": "Point",
        "coordinates": [
          40.02601861201781,
          20.449461622829485
        ]
      }
    },
    {
      "type": "Feature",
      "properties": {
        "norad_id": 34909,
        "name": "COSMOS 2251 DEB",
        "group": "cosmos-2251-debris",
        "lat": 59.89544453897283,
        "lon": 117.1702254724935,
        "alt_km": 686.3367963749015,
        "timestamp": "2025-12-07T03:52:32.898034+00:00",
        "meta_object_name": "COSMOS 2251 DEB",
        "meta_object_id": "1993-036ADE",
        "meta_epoch": "2025-12-05T23:57:38.577888",
        "meta_mean_motion": 14.77735349,
        "meta_eccentricity": 0.00849918,
        "meta_inclination": 74.0146,
        "meta_ra_of_asc_node": 89.8234,
        "meta_arg_of_pericenter": 227.0942,
        "meta_mean_anomaly": 132.3079,
        "meta_ephemeris_type": 0,
        "meta_classification_type": "U",
        "meta_norad_cat_id": 34909,
        "meta_element_set_no": 999,
        "meta_rev_at_epoch": 66752,
        "meta_bstar": 0.0011054928,
        "meta_mean_motion_dot": 8.393e-05,
        "meta_mean_motion_ddot": 0,
        "tle_line1": "1 34909U 93036ADE 25339.99836317  .00008393  00000+0  11055-2 0  9990",
        "tle_line2": "2 34909  74.0146  89.8234 0084991 227.0942 132.3079 14.77735349667521"
      },
      "geometry": {
        "type": "Point",
        "coordinates": [
          117.1702254724935,
          59.89544453897283
        ]
      }
    },
    {
      "type": "Feature",
      "properties": {
        "norad_id": 34910,
        "name": "COSMOS 2251 DEB",
        "group": "cosmos-2251-debris",
        "lat": -39.789980550097134,
        "lon": 96.28877595645396,
        "alt_km": 1097.3550673641248,
        "timestamp": "2025-12-07T03:52:32.898045+00:00",
        "meta_object_name": "COSMOS 2251 DEB",
        "meta_object_id": "1993-036ADF",
        "meta_epoch": "2025-12-04T03:27:09.174816",
        "meta_mean_motion": 13.3765034,
        "meta_eccentricity": 0.04679235,
        "meta_inclination": 73.8763,
        "meta_ra_of_asc_node": 114.9889,
        "meta_arg_of_pericenter": 235.2756,
        "meta_mean_anomaly": 311.3517,
        "meta_ephemeris_type": 0,
        "meta_classification_type": "U",
        "meta_norad_cat_id": 34910,
        "meta_element_set_no": 999,
        "meta_rev_at_epoch": 81409,
        "meta_bstar": 0.0018660381,
        "meta_mean_motion_dot": 1.821e-05,
        "meta_mean_motion_ddot": 0,
        "tle_line1": "1 34910U 93036ADF 25338.14385619  .00001821  00000+0  18660-2 0  9990",
        "tle_line2": "2 34910  73.8763 114.9889 0467923 235.2756 311.3517 13.37650340814099"
      },
      "geometry": {
        "type": "Point",
        "coordinates": [
          96.28877595645396,
          -39.789980550097134
        ]
      }
    },
    {
      "type": "Feature",
      "properties": {
        "norad_id": 34911,
        "name": "COSMOS 2251 DEB",
        "group": "cosmos-2251-debris",
        "lat": 8.899959492828255,
        "lon": 72.80724953941964,
        "alt_km": 746.6999881254824,
        "timestamp": "2025-12-07T03:52:32.898056+00:00",
        "meta_object_name": "COSMOS 2251 DEB",
        "meta_object_id": "1993-036ADG",
        "meta_epoch": "2025-12-06T00:50:31.047648",
        "meta_mean_motion": 14.59353531,
        "meta_eccentricity": 0.00832818,
        "meta_inclination": 74.0413,
        "meta_ra_of_asc_node": 257.5214,
        "meta_arg_of_pericenter": 24.6657,
        "meta_mean_anomaly": 350.0931,
        "meta_ephemeris_type": 0,
        "meta_classification_type": "U",
        "meta_norad_cat_id": 34911,
        "meta_element_set_no": 999,
        "meta_rev_at_epoch": 88489,
        "meta_bstar": 0.00031543433,
        "meta_mean_motion_dot": 1.535e-05,
        "meta_mean_motion_ddot": 0,
        "tle_line1": "1 34911U 93036ADG 25340.03508157  .00001535  00000+0  31543-3 0  9994",
        "tle_line2": "2 34911  74.0413 257.5214 0083281  24.6657 350.0931 14.59353531884894"
      },
      "geometry": {
        "type": "Point",
        "coordinates": [
          72.80724953941964,
          8.899959492828255
        ]
      }
    },
    {
      "type": "Feature",
      "properties": {
        "norad_id": 34913,
        "name": "COSMOS 2251 DEB",
        "group": "cosmos-2251-debris",
        "lat": -48.402922836015094,
        "lon": -86.10056433617909,
        "alt_km": 784.1155204880906,
        "timestamp": "2025-12-07T03:52:32.898066+00:00",
        "meta_object_name": "COSMOS 2251 DEB",
        "meta_object_id": "1993-036ADJ",
        "meta_epoch": "2025-12-06T15:33:47.688768",
        "meta_mean_motion": 14.34634436,
        "meta_eccentricity": 0.00201338,
        "meta_inclination": 74.0279,
        "meta_ra_of_asc_node": 293.6605,
        "meta_arg_of_pericenter": 45.5566,
        "meta_mean_anomaly": 135.1428,
        "meta_ephemeris_type": 0,
        "meta_classification_type": "U",
        "meta_norad_cat_id": 34913,
        "meta_element_set_no": 999,
        "meta_rev_at_epoch": 65100,
        "meta_bstar": 0.00010202972,
        "meta_mean_motion_dot": 2.63e-06,
        "meta_mean_motion_ddot": 0,
        "tle_line1": "1 34913U 93036ADJ 25340.64846862  .00000263  00000+0  10203-3 0  9998",
        "tle_line2": "2 34913  74.0279 293.6605 0020133  45.5566 135.1428 14.34634436651006"
      },
      "geometry": {
        "type": "Point",
        "coordinates": [
          -86.10056433617909,
          -48.402922836015094
        ]
      }
    }
  ]
}